ITUPSAT1                
1 35935U 09051E   23035.60835738  .00000877  00000+0  20887-3 0  9992
2 35935  98.5437 264.1502 0009180  72.8225 287.3976 14.56320236709692
TISAT 1                 
1 36799U 10035E   23035.13076372  .00004215  00000+0  39606-3 0  9993
2 36799  98.1557 259.5620 0012771  55.6879 304.5547 14.94449748682343
M-CUBED & EXP-1 PRIME   
1 37855U 11061F   23035.60285812  .00015891  00000+0  60610-3 0  9991
2 37855 101.7106 284.0245 0137979  83.9113 277.7807 15.18370446616383
AEROCUBE 4.5A           
1 38767U 12048K   23035.56132127  .00009630  00000+0  66082-3 0  9998
2 38767  64.6655 100.7454 0148848 197.6389 161.9528 14.97849313185502
AEROCUBE 4.5B           
1 38768U 12048L   23035.43167435  .00010472  00000+0  63798-3 0  9992
2 38768  64.6654  49.8143 0130960 192.5714 167.2130 15.03853085185970
STRAND-1                
1 39090U 13009E   23035.50197114  .00000361  00000+0  14045-3 0  9991
2 39090  98.3917 232.4642 0008103 304.3445  55.6974 14.35436576520689
BRITE-AUSTRIA           
1 39091U 13009F   23035.49218587  .00000237  00000+0  97521-4 0  9991
2 39091  98.3938 231.6614 0009591 311.1831  48.8527 14.35375464520710
SOMP                    
1 39134U 13015E   23035.34597071  .00045760  00000+0  11475-2 0  9990
2 39134  64.8579  16.0481 0022957 252.3565 107.5065 15.39506723542774
BEESAT-3                
1 39135U 13015F   23035.53853099  .00025561  00000+0  83036-3 0  9997
2 39135  64.8626  58.4045 0029544 252.1207 107.6704 15.31454770541972
BEESAT-2                
1 39136U 13015G   23035.44545529  .00023741  00000+0  81671-3 0  9995
2 39136  64.8716  68.5488 0026239 289.1047  70.7244 15.29726973541306
NEE-01 PEGASO           
1 39151U 13018B   23035.27893390  .00002619  00000+0  33807-3 0  9997
2 39151  97.9995 145.4192 0015754 220.9116 139.0915 14.81770132527992
ESTCUBE 1               
1 39161U 13021C   23035.77900335  .00001595  00000+0  25244-3 0  9993
2 39161  97.8850 111.7843 0009867  40.7457 319.4441 14.73579588523677
POPACS 1                
1 39268U 13055D   23035.56635260  .00018219  00000+0  43567-3 0  9996
2 39268  80.9978 348.2391 0534458 215.0169 141.4789 14.59519868487047
POPACS 2                
1 39269U 13055E   23035.74165450  .00016501  00000+0  43539-3 0  9997
2 39269  81.0076  52.5191 0625418  21.9949 340.6849 14.38363958484725
POPACS 3                
1 39270U 13055F   23035.58596791  .00008163  00000+0  23996-3 0  9997
2 39270  81.0115  90.0207 0676127 127.7425 238.7028 14.25269576461653
ZACUBE-1 (TSHEPISOSAT)  
1 39417U 13066B   23035.36627944  .00004467  00000+0  53369-3 0  9993
2 39417  97.6686   1.9486 0056492   5.9779 354.2097 14.83542359497496
WNISAT-1                
1 39423U 13066H   23035.88748442  .00000791  00000+0  16307-3 0  9991
2 39423  97.7209 264.8430 0174344 130.8503 230.7950 14.53830090488219
TRITON-1                
1 39427U 13066M   23035.75741022  .00002412  00000+0  37594-3 0  9991
2 39427  97.8311 326.7573 0108529 241.4657 117.5591 14.69946030493088
DELFI-N3XT              
1 39428U 13066N   23035.80925367  .00004664  00000+0  69977-3 0  9995
2 39428  97.8302 325.5416 0112336 254.1472 104.7329 14.70823447492847
GOMX-1                  
1 39430U 13066Q   23035.77484083  .00002085  00000+0  37282-3 0  9998
2 39430  97.7957 294.5839 0148536  32.3771 328.6447 14.60941588490200
CUBEBUG-2 (LO-74)       
1 39440U 13066AA  23035.41840375  .00003087  00000+0  41247-3 0  9999
2 39440  97.7576 348.7447 0079055  98.5802 262.4377 14.78058636494532
NEE-02 KRYSAOR          
1 39441U 13066AB  23035.29945599  .00001866  00000+0  26101-3 0  9995
2 39441  97.7686 345.6455 0081038 114.0138 246.9581 14.76487365494234
FUNCUBE-1 (AO-73)       
1 39444U 13066AE  23035.46760846  .00005696  00000+0  65773-3 0  9990
2 39444  97.6551   4.5037 0054592 352.3526   7.6851 14.84906622495938
UWE-3                   
1 39446U 13066AG  23035.44203462  .00003989  00000+0  50492-3 0  9991
2 39446  97.7187 355.0312 0068712  53.7027 307.0505 14.80672442494773
AEROCUBE 5A             
1 39465U 13072D   23035.26282235  .00170761  00000+0  48528-2 0  9993
2 39465 120.4769 113.2552 0130675 162.6475 197.9123 15.27053732184583
BRITE-CA1 (TORONTO)     
1 40020U 14033L   23035.90396381  .00001370  00000+0  23777-3 0  9998
2 40020  97.8032 188.5020 0085114 241.8641 117.3944 14.67454953461857
DUCHIFAT-1              
1 40021U 14033M   23035.44968158  .00007445  00000+0  68283-3 0  9995
2 40021  98.0431 355.5390 0011861   5.8649 354.2708 14.95133751469336
NANOSATC-BR1            
1 40024U 14033Q   23035.85718978  .00005700  00000+0  54497-3 0  9990
2 40024  98.0128 348.0111 0011470  10.2728 349.8723 14.93599454469166
QB50P1                  
1 40025U 14033R   23035.30950182  .00005204  00000+0  51791-3 0  9999
2 40025  97.9839 339.9842 0012256  22.4254 337.7497 14.92033459468313
QB50P2                  
1 40032U 14033Y   23035.36370338  .00004919  00000+0  49838-3 0  9993
2 40032  97.9574 334.4739 0011700  20.6141 339.5547 14.91348820468169
PERSEUS-M2              
1 40037U 14033AD  23035.74306520  .00001796  00000+0  20283-3 0  9995
2 40037  97.9052 321.7884 0015149  40.6777 319.5568 14.87707299468157
PERSEUS-M1              
1 40039U 14033AF  23035.59755451  .00001869  00000+0  21286-3 0  9996
2 40039  97.8928 318.9432 0015020  40.5429 319.6903 14.87322632467504
POLYITAN-1              
1 40042U 14033AJ  23035.43407420  .00006034  00000+0  59371-3 0  9998
2 40042  97.9950 341.6722 0014041  12.8340 347.3233 14.92403665468221
TIGRISAT                
1 40043U 14033AK  23035.46191623  .00002164  00000+0  31457-3 0  9992
2 40043  97.6552 217.3246 0059408 123.7077 236.9816 14.75711849463831
AEROCUBE 6A             
1 40045U 14033AM  23035.47817064  .00002603  00000+0  36384-3 0  9991
2 40045  97.6555 226.7410 0056927 109.9576 250.7779 14.77302310464021
AEROCUBE 6B             
1 40046U 14033AN  23035.51114521  .00003723  00000+0  50946-3 0  9999
2 40046  97.6484 225.1884 0055565 107.4909 253.2386 14.78006789464047
UKUBE-1                 
1 40074U 14037F   23035.94463609  .00003573  00000+0  40863-3 0  9995
2 40074  98.3557 293.5560 0003008 265.1959  94.8917 14.86692667464593
BRITE-PL2 (HEWELIUSZ)   
1 40119U 14049B   23035.27648306  .00002003  00000+0  23619-3 0  9990
2 40119  97.8808 133.6071 0016475 199.6416 160.4166 14.85792680458424
FIREBIRD 4              
1 40378U 15003C   23035.32891858  .00058383  00000+0  11994-2 0  9990
2 40378  99.0799 318.8002 0073404 314.6606  44.8667 15.42883742443980
GRIFEX                  
1 40379U 15003D   23035.78044688  .00027491  00000+0  80400-3 0  9997
2 40379  99.0843 301.8792 0100634   5.5839 354.6492 15.30281195443067
CP10 (EXOCUBE)          
1 40380U 15003E   23035.26767108  .00020159  00000+0  67742-3 0  9999
2 40380  99.0935 292.6281 0113002  35.8839 324.9916 15.24877691442414
EXACTVIEW 9             
1 40936U 15052G   23035.39847837  .00002584  00000+0  26339-3 0  9991
2 40936   6.0048 317.4917 0010590 207.8471 152.1089 14.77796784397575
AEROCUBE 5C             
1 40965U 15058B   23035.56494442  .00001678  00000+0  20104-3 0  9995
2 40965  64.7720  86.1569 0167017 121.8118 239.9375 14.78210778183231
AEROCUBE 7              
1 40966U 15058C   23035.51395974  .00002049  00000+0  23830-3 0  9993
2 40966  64.7721  83.0465 0164756 121.6326 240.0975 14.78944246183233
ATHENOXAT 1             
1 41168U 15077C   23035.65045703  .00046035  00000+0  14221-2 0  9992
2 41168  14.9853 159.2580 0005493 292.3733 191.2933 15.31604703395805
GALASSIA                
1 41170U 15077E   23035.41883124  .00027250  00000+0  94569-3 0  9998
2 41170  14.9861 156.3262 0008063 304.1558  55.8000 15.27544251395643
VELOX-II                
1 41171U 15077F   23035.70515677  .00017141  00000+0  71975-3 0  9990
2 41171  14.9899 241.6263 0006868 113.3943 246.7101 15.20762979395019
HORYU-4                 
1 41340U 16012D   23035.10658834  .00007083  00000+0  47544-3 0  9994
2 41340  31.0056 317.8380 0012608 345.7754  14.2527 15.05385033382637
E-ST@R-II               
1 41459U 16025D   23035.42146676  .00027969  00000+0  10156-2 0  9993
2 41459  98.1919 224.0838 0126413 198.5557 161.1075 15.20963399372657
AAUSAT 4                
1 41460U 16025E   23035.81850734  .00052178  00000+0  14137-2 0  9998
2 41460  98.1763 233.5292 0094753 163.4146 209.5465 15.32982252373340
BEESAT-4                
1 41619U 16040W   23035.13551613  .00035628  00000+0  86143-3 0  9998
2 41619  97.1845  85.3851 0007407  12.9844 347.1593 15.41034726356260
RAVAN                   
1 41849U 16067B   23035.40889967  .00008049  00000+0  60048-3 0  9991
2 41849  98.0177 184.6994 0016167 274.2267  85.7109 15.03043734340807
CELTEE 1                
1 41850U 16067C   23035.60982454  .00005137  00000+0  41953-3 0  9999
2 41850  98.0254 179.0949 0004509 310.1602  49.9225 14.99863083340535
OPTICUBE 04             
1 41851U 16067D   23035.39061852  .00002832  00000+0  24078-3 0  9994
2 41851  98.0219 177.5692 0007637 287.0845  72.9540 14.98684197340432
AEROCUBE 8D             
1 41852U 16067E   23035.60371881  .00005538  00000+0  45088-3 0  9995
2 41852  98.0215 178.0546 0004881 308.5415  51.5370 14.99946851340470
AEROCUBE 8C             
1 41853U 16067F   23035.38882351  .00005150  00000+0  41994-3 0  9992
2 41853  98.0175 177.6295 0007384 270.0667  89.9709 14.99907850340438
PROMETHEUS 2-1          
1 41854U 16067G   23035.37795524  .00008203  00000+0  62501-3 0  9996
2 41854  98.0479 179.5899 0016861 304.9116  55.0522 15.02225533340526
PROMETHEUS 2-3          
1 41855U 16067H   23035.90234682  .00006724  00000+0  51394-3 0  9993
2 41855  98.0379 180.1360 0015012 313.1470  46.8498 15.02203980340600
INS-1B                  
1 41954U 17008G   23035.11558383  .00034154  00000+0  83517-3 0  9999
2 41954  97.2255  95.9450 0006783 118.9995 241.1933 15.40706270332286
